******** Week 21 almanac for PRN-19 ********
ID:                         19
Health:                     000
Eccentricity:               0.9461879730E-002
Time of Applicability(s):  503808.0000
Orbital Inclination(rad):   0.9822893912
Rate of Right Ascen(r/s):  -0.7874613724E-008
SQRT(A)  (m 1/2):           5153.601562
Right Ascen at Week(rad):   0.5955560567E+000
Argument of Perigee(rad):   1.495781820
Mean Anom(rad):            -0.2910759629E+001
Af0(s):                    -0.2708435059E-003
Af1(s/s):                   0.3637978807E-011
week:                        21

******** Week 21 almanac for PRN-20 ********
ID:                         20
Health:                     000
Eccentricity:               0.4802227020E-002
Time of Applicability(s):  503808.0000
Orbital Inclination(rad):   0.9316680252
Rate of Right Ascen(r/s):  -0.8103194673E-008
SQRT(A)  (m 1/2):           5153.563965
Right Ascen at Week(rad):   0.2465276403E+001
Argument of Perigee(rad):   2.424753619
Mean Anom(rad):            -0.1884572921E+001
Af0(s):                     0.5264282227E-003
Af1(s/s):                   0.0000000000E+000
week:                        21

******** Week 21 almanac for PRN-21 ********
ID:                         21
Health:                     000
Eccentricity:               0.2449417114E-001
Time of Applicability(s):  503808.0000
Orbital Inclination(rad):   0.9495125361
Rate of Right Ascen(r/s):  -0.8034620388E-008
SQRT(A)  (m 1/2):           5153.614746
Right Ascen at Week(rad):   0.1481154699E+001
Argument of Perigee(rad):  -1.415439202
Mean Anom(rad):             0.2937491566E+001
Af0(s):                    -0.1230239868E-003
Af1(s/s):                   0.7275957614E-011
week:                        21

******** Week 21 almanac for PRN-22 ********
ID:                         22
Health:                     000
Eccentricity:               0.6948947906E-002
Time of Applicability(s):  503808.0000
Orbital Inclination(rad):   0.9284143082
Rate of Right Ascen(r/s):  -0.8160339911E-008
SQRT(A)  (m 1/2):           5153.653809
Right Ascen at Week(rad):   0.2513616647E+001
Argument of Perigee(rad):  -1.291020477
Mean Anom(rad):            -0.2174357846E+000
Af0(s):                    -0.7524490356E-003
Af1(s/s):                  -0.3637978807E-011
week:                        21

******** Week 21 almanac for PRN-23 ********
ID:                         23
Health:                     000
Eccentricity:               0.1323604584E-001
Time of Applicability(s):  503808.0000
Orbital Inclination(rad):   0.9436342738
Rate of Right Ascen(r/s):  -0.8046049436E-008
SQRT(A)  (m 1/2):           5153.703613
Right Ascen at Week(rad):  -0.2667396348E+001
Argument of Perigee(rad):  -2.230323802
Mean Anom(rad):            -0.6963190452E+000
Af0(s):                    -0.1678466797E-003
Af1(s/s):                   0.3637978807E-011
week:                        21

******** Week 21 almanac for PRN-24 ********
ID:                         24
Health:                     000
Eccentricity:               0.8617401123E-002
Time of Applicability(s):  503808.0000
Orbital Inclination(rad):   0.9376661298
Rate of Right Ascen(r/s):  -0.8057478483E-008
SQRT(A)  (m 1/2):           5153.645996
Right Ascen at Week(rad):  -0.1653397971E+001
Argument of Perigee(rad):   0.602756703
Mean Anom(rad):            -0.1211741458E+001
Af0(s):                    -0.1907348633E-005
Af1(s/s):                   0.0000000000E+000
week:                        21

******** Week 21 almanac for PRN-25 ********
ID:                         25
Health:                     000
Eccentricity:               0.8399009705E-002
Time of Applicability(s):  503808.0000
Orbital Inclination(rad):   0.9690288464
Rate of Right Ascen(r/s):  -0.7897471819E-008
SQRT(A)  (m 1/2):           5153.618652
Right Ascen at Week(rad):  -0.5491482692E+000
Argument of Perigee(rad):   0.897332322
Mean Anom(rad):             0.3090557832E+001
Af0(s):                    -0.1144409180E-004
Af1(s/s):                   0.0000000000E+000
week:                        21

******** Week 21 almanac for PRN-26 ********
ID:                         26
Health:                     000
Eccentricity:               0.3867626190E-002
Time of Applicability(s):  503808.0000
Orbital Inclination(rad):   0.9502375817
Rate of Right Ascen(r/s):  -0.8080336578E-008
SQRT(A)  (m 1/2):           5153.613281
Right Ascen at Week(rad):  -0.5795837064E+000
Argument of Perigee(rad):   0.129270089
Mean Anom(rad):             0.2575172495E+001
Af0(s):                     0.3242492676E-004
Af1(s/s):                   0.7275957614E-011
week:                        21

******** Week 21 almanac for PRN-27 ********
ID:                         27
Health:                     000
Eccentricity:               0.7180213928E-002
Time of Applicability(s):  503808.0000
Orbital Inclination(rad):   0.9787720212
Rate of Right Ascen(r/s):  -0.7943188009E-008
SQRT(A)  (m 1/2):           5153.605469
Right Ascen at Week(rad):   0.4927497578E+000
Argument of Perigee(rad):   0.516782997
Mean Anom(rad):             0.6785790217E+000
Af0(s):                    -0.4768371582E-004
Af1(s/s):                  -0.1091393642E-010
week:                        21

******** Week 21 almanac for PRN-28 ********
ID:                         28
Health:                     000
Eccentricity:               0.1905822754E-001
Time of Applicability(s):  503808.0000
Orbital Inclination(rad):   0.9809771186
Rate of Right Ascen(r/s):  -0.7771752296E-008
SQRT(A)  (m 1/2):           5153.662598
Right Ascen at Week(rad):  -0.4607709772E+000
Argument of Perigee(rad):  -1.458631472
Mean Anom(rad):             0.1491890317E+001
Af0(s):                     0.7629394531E-003
Af1(s/s):                   0.0000000000E+000
week:                        21

******** Week 21 almanac for PRN-29 ********
ID:                         29
Health:                     000
Eccentricity:               0.1212120056E-002
Time of Applicability(s):  503808.0000
Orbital Inclination(rad):   0.9858906508
Rate of Right Ascen(r/s):  -0.7851755629E-008
SQRT(A)  (m 1/2):           5153.654785
Right Ascen at Week(rad):   0.5608145377E+000
Argument of Perigee(rad):   1.979335558
Mean Anom(rad):             0.9420357280E+000
Af0(s):                     0.1049041748E-003
Af1(s/s):                  -0.1091393642E-010
week:                        21

******** Week 21 almanac for PRN-30 ********
ID:                         30
Health:                     000
Eccentricity:               0.4195213318E-002
Time of Applicability(s):  503808.0000
Orbital Inclination(rad):   0.9398652350
Rate of Right Ascen(r/s):  -0.8046049436E-008
SQRT(A)  (m 1/2):           5153.704102
Right Ascen at Week(rad):  -0.1559025196E+001
Argument of Perigee(rad):  -2.898988499
Mean Anom(rad):            -0.2187577569E+001
Af0(s):                    -0.3528594971E-004
Af1(s/s):                  -0.7275957614E-011
week:                        21

******** Week 21 almanac for PRN-31 ********
ID:                         31
Health:                     000
Eccentricity:               0.9332180023E-002
Time of Applicability(s):  503808.0000
Orbital Inclination(rad):   0.9589680895
Rate of Right Ascen(r/s):  -0.7828897534E-008
SQRT(A)  (m 1/2):           5153.635742
Right Ascen at Week(rad):  -0.1571199296E+001
Argument of Perigee(rad):   0.022684640
Mean Anom(rad):            -0.2431922433E+001
Af0(s):                     0.1239776611E-004
Af1(s/s):                  -0.3637978807E-011
week:                        21

******** Week 21 almanac for PRN-32 ********
ID:                         32
Health:                     000
Eccentricity:               0.3220081329E-002
Time of Applicability(s):  503808.0000
Orbital Inclination(rad):   0.9570386293
Rate of Right Ascen(r/s):  -0.7920329914E-008
SQRT(A)  (m 1/2):           5153.566406
Right Ascen at Week(rad):  -0.2654125317E+001
Argument of Perigee(rad):  -2.497265670
Mean Anom(rad):             0.1402098512E+001
Af0(s):                     0.4768371582E-004
Af1(s/s):                   0.1455191523E-010
week:                        21